Country,Office Address,City,Zip,State
US,1 Federal Street,Boston,2110,MA
US,380 Stuart Street,Boston,2116,MA
US,309 W 49th Street,New York,10019,NY
US,One Grand Central Place 60 E 42nd Street Suite 4600,New York,10165,NY
US,1241 East Main Street,Stamford,6902,CT
US,20 W 34th Street,New York,10001,NY
US,250 Vesey Street,New York,10281,NY
FR,16 Boulevard des Italiens,Paris,75009,
US,415 Mission Street,San Francisco,94105,CA
IT,Piazza Gae Aulenti 3,Milan,20154,
BR,Suan Quadra 5 Lote B,Norte Brasilia,70089,DF
US,14022 S Sunland Gin Rd,Arizona City,85123,AZ
US,"15114 S Sunland Gin Rd,",Arizona City,85123,AZ
US,15109 Lamb Rd,Arizona City,85123,AZ
US,"15861 S Sunland Gin Rd,",Arizona City,85123,AZ
US,15487 S Tipton Pl,Arizona City,85123,AZ
US,6200 Hermann Park Dr,Houston,77030,TX
US,999 N Loop W,Houston,77008,TX
US,2704 Navigation Blvd,Houston,77003,TX
US,1517 Westheimer Rd,Houston,77006,TX
US,200 Varick Street,New York,10014,NY
GB,20 Fenchurch Street,London,EC3M 3BY,JS
